start=new Date('2022-04-22T00:00:00.000Z').valueOf();
sats=[{"APOAPSIS":"548.622","PERIAPSIS":"545.788","ARG_OF_PERICENTER":"44.0390","CLASSIFICATION_TYPE":"U","DECAY_DATE":null,"NORAD_CAT_ID":"47806","OBJECT_NAME":"STARLINK-2387","TLE_LINE2":"2 47806  53.0535 133.3347 0002046  44.0390 316.0761 15.06402885 62960","COUNTRY_CODE":"US","TLE_LINE1":"1 47806U 21018V   22111.45224894  .00000436  00000-0  48167-4 0  9995","MEAN_ELEMENT_THEORY":"SGP4","GP_ID":"201749865","BSTAR":"0.00004816700000","MEAN_ANOMALY":"316.0761","OBJECT_TYPE":"PAYLOAD","REF_FRAME":"TEME","ELEMENT_SET_NO":"999","MEAN_MOTION":"15.06402885","FILE":"3410449","PERIOD":"95.592","SITE":"AFETR","ECCENTRICITY":"0.00020460","INCLINATION":"53.0535","OBJECT_ID":"2021-018V","SEMIMAJOR_AXIS":"6925.340","CENTER_NAME":"EARTH","MEAN_MOTION_DDOT":"0.0000000000000","RA_OF_ASC_NODE":"133.3347","MEAN_MOTION_DOT":"0.00000436","LAUNCH_DATE":"2021-03-11","RCS_SIZE":"LARGE","EPOCH":"2022-04-21T10:51:14.308416","REV_AT_EPOCH":"6296","EPHEMERIS_TYPE":"0","TIME_SYSTEM":"UTC"},{"EPOCH":"2022-04-21T16:59:29.273280","RCS_SIZE":"LARGE","EPHEMERIS_TYPE":"0","TIME_SYSTEM":"UTC","REV_AT_EPOCH":"6294","RA_OF_ASC_NODE":"107.1891","LAUNCH_DATE":"2021-03-11","MEAN_MOTION_DOT":"0.00000862","CENTER_NAME":"EARTH","MEAN_MOTION_DDOT":"0.0000000000000","OBJECT_ID":"2021-018W","SEMIMAJOR_AXIS":"6925.364","SITE":"AFETR","PERIOD":"95.592","INCLINATION":"53.0561","ECCENTRICITY":"0.00021720","OBJECT_TYPE":"PAYLOAD","REF_FRAME":"TEME","MEAN_ANOMALY":"314.5964","BSTAR":"0.00007677800000","MEAN_MOTION":"15.06395047","FILE":"3410450","ELEMENT_SET_NO":"999","GP_ID":"201775480","TLE_LINE2":"2 47807  53.0561 107.1891 0002172  45.5202 314.5964 15.06395047 62948","COUNTRY_CODE":"US","TLE_LINE1":"1 47807U 21018W   22111.70797770  .00000862  00000-0  76778-4 0  9994","OBJECT_NAME":"STARLINK-2388","MEAN_ELEMENT_THEORY":"SGP4","PERIAPSIS":"545.725","ARG_OF_PERICENTER":"45.5202","APOAPSIS":"548.733","DECAY_DATE":null,"CLASSIFICATION_TYPE":"U","NORAD_CAT_ID":"47807"},{"RCS_SIZE":"LARGE","EPOCH":"2022-04-21T06:32:30.579360","REV_AT_EPOCH":"6293","EPHEMERIS_TYPE":"0","TIME_SYSTEM":"UTC","RA_OF_ASC_NODE":"134.1527","MEAN_MOTION_DOT":"0.00004905","LAUNCH_DATE":"2021-03-11","SEMIMAJOR_AXIS":"6925.310","OBJECT_ID":"2021-018X","MEAN_MOTION_DDOT":"0.0000000000000","CENTER_NAME":"EARTH","PERIOD":"95.591","SITE":"AFETR","ECCENTRICITY":"0.00017160","INCLINATION":"53.0526","BSTAR":"0.00034784000000","OBJECT_TYPE":"PAYLOAD","REF_FRAME":"TEME","MEAN_ANOMALY":"313.0139","ELEMENT_SET_NO":"999","MEAN_MOTION":"15.06412505","FILE":"3410449","GP_ID":"201750841","OBJECT_NAME":"STARLINK-2389","TLE_LINE1":"1 47808U 21018X   22111.27257615  .00004905  00000-0  34784-3 0  9998","TLE_LINE2":"2 47808  53.0526 134.1527 0001716  47.0994 313.0139 15.06412505 62930","COUNTRY_CODE":"US","MEAN_ELEMENT_THEORY":"SGP4","APOAPSIS":"548.364","ARG_OF_PERICENTER":"47.0994","PERIAPSIS":"545.987","NORAD_CAT_ID":"47808","DECAY_DATE":null,"CLASSIFICATION_TYPE":"U"},{"INCLINATION":"53.0535","ECCENTRICITY":"0.00018740","SITE":"AFETR","PERIOD":"95.592","MEAN_MOTION_DDOT":"0.0000000000000","CENTER_NAME":"EARTH","SEMIMAJOR_AXIS":"6925.318","OBJECT_ID":"2021-018Y","LAUNCH_DATE":"2021-03-11","MEAN_MOTION_DOT":"-0.00000090","RA_OF_ASC_NODE":"137.9239","EPHEMERIS_TYPE":"0","TIME_SYSTEM":"UTC","REV_AT_EPOCH":"6290","EPOCH":"2022-04-21T13:01:58.076256","RCS_SIZE":"LARGE","DECAY_DATE":null,"CLASSIFICATION_TYPE":"U","NORAD_CAT_ID":"47809","ARG_OF_PERICENTER":"51.2483","PERIAPSIS":"545.885","APOAPSIS":"548.480","MEAN_ELEMENT_THEORY":"SGP4","TLE_LINE1":"1 47809U 21018Y   22111.54303329 -.00000090  00000-0  12855-4 0  9991","TLE_LINE2":"2 47809  53.0535 137.9239 0001874  51.2483 308.8673 15.06410070 62904","COUNTRY_CODE":"US","OBJECT_NAME":"STARLINK-2390","GP_ID":"201774984","FILE":"3410450","MEAN_MOTION":"15.06410070","ELEMENT_SET_NO":"999","MEAN_ANOMALY":"308.8673","OBJECT_TYPE":"PAYLOAD","REF_FRAME":"TEME","BSTAR":"0.00001285500000"},{"OBJECT_NAME":"STARLINK-2391","TLE_LINE1":"1 47810U 21018Z   22111.36886561  .00003229  00000-0  23562-3 0  9999","TLE_LINE2":"2 47810  53.0535 148.7200 0001532  60.3574 299.7568 15.06391508 62733","COUNTRY_CODE":"US","MEAN_ELEMENT_THEORY":"SGP4","APOAPSIS":"548.301","ARG_OF_PERICENTER":"60.3574","PERIAPSIS":"546.179","DECAY_DATE":null,"CLASSIFICATION_TYPE":"U","NORAD_CAT_ID":"47810","BSTAR":"0.00023562000000","REF_FRAME":"TEME","OBJECT_TYPE":"PAYLOAD","MEAN_ANOMALY":"299.7568","ELEMENT_SET_NO":"999","MEAN_MOTION":"15.06391508","FILE":"3410449","GP_ID":"201749365","SEMIMAJOR_AXIS":"6925.375","OBJECT_ID":"2021-018Z","MEAN_MOTION_DDOT":"0.0000000000000","CENTER_NAME":"EARTH","PERIOD":"95.593","SITE":"AFETR","ECCENTRICITY":"0.00015320","INCLINATION":"53.0535","RCS_SIZE":"LARGE","EPOCH":"2022-04-21T08:51:09.988704","REV_AT_EPOCH":"6273","EPHEMERIS_TYPE":"0","TIME_SYSTEM":"UTC","RA_OF_ASC_NODE":"148.7200","MEAN_MOTION_DOT":"0.00003229","LAUNCH_DATE":"2021-03-11"},{"GP_ID":"201750614","BSTAR":"0.00008353800000","OBJECT_TYPE":"PAYLOAD","MEAN_ANOMALY":"306.3274","REF_FRAME":"TEME","ELEMENT_SET_NO":"999","MEAN_MOTION":"15.06408346","FILE":"3410449","APOAPSIS":"548.455","ARG_OF_PERICENTER":"53.7884","PERIAPSIS":"545.921","CLASSIFICATION_TYPE":"U","DECAY_DATE":null,"NORAD_CAT_ID":"47811","OBJECT_NAME":"STARLINK-2392","TLE_LINE1":"1 47811U 21018AA  22111.40849934  .00000963  00000-0  83538-4 0  9990","COUNTRY_CODE":"US","TLE_LINE2":"2 47811  53.0529 118.5340 0001830  53.7884 306.3274 15.06408346 63164","MEAN_ELEMENT_THEORY":"SGP4","RA_OF_ASC_NODE":"118.5340","MEAN_MOTION_DOT":"0.00000963","LAUNCH_DATE":"2021-03-11","RCS_SIZE":"LARGE","EPOCH":"2022-04-21T09:48:14.342976","REV_AT_EPOCH":"6316","EPHEMERIS_TYPE":"0","TIME_SYSTEM":"UTC","PERIOD":"95.592","SITE":"AFETR","ECCENTRICITY":"0.00018300","INCLINATION":"53.0529","OBJECT_ID":"2021-018AA","SEMIMAJOR_AXIS":"6925.323","MEAN_MOTION_DDOT":"0.0000000000000","CENTER_NAME":"EARTH"},{"ELEMENT_SET_NO":"999","FILE":"3410450","MEAN_MOTION":"15.06390223","BSTAR":"-0.00002790100000","REF_FRAME":"TEME","OBJECT_TYPE":"PAYLOAD","MEAN_ANOMALY":"307.0162","GP_ID":"201774234","MEAN_ELEMENT_THEORY":"SGP4","OBJECT_NAME":"STARLINK-2393","TLE_LINE1":"1 47812U 21018AB  22111.57897710 -.00000697  00000-0 -27901-4 0  9992","TLE_LINE2":"2 47812  53.0558 147.7750 0001648  53.0978 307.0162 15.06390223 62369","COUNTRY_CODE":"US","DECAY_DATE":null,"NORAD_CAT_ID":"47812","CLASSIFICATION_TYPE":"U","APOAPSIS":"548.385","ARG_OF_PERICENTER":"53.0978","PERIAPSIS":"546.102","REV_AT_EPOCH":"6236","TIME_SYSTEM":"UTC","EPHEMERIS_TYPE":"0","RCS_SIZE":"LARGE","EPOCH":"2022-04-21T13:53:43.621440","MEAN_MOTION_DOT":"-0.00000697","LAUNCH_DATE":"2021-03-11","RA_OF_ASC_NODE":"147.7750","OBJECT_ID":"2021-018AB","SEMIMAJOR_AXIS":"6925.379","MEAN_MOTION_DDOT":"0.0000000000000","CENTER_NAME":"EARTH","ECCENTRICITY":"0.00016480","INCLINATION":"53.0558","PERIOD":"95.593","SITE":"AFETR"},{"BSTAR":"0.00011879000000","MEAN_ANOMALY":"307.1957","OBJECT_TYPE":"PAYLOAD","REF_FRAME":"TEME","ELEMENT_SET_NO":"999","FILE":"3410449","MEAN_MOTION":"15.06404622","GP_ID":"201749119","OBJECT_NAME":"STARLINK-2394","TLE_LINE1":"1 47813U 21018AC  22111.43061212  .00001488  00000-0  11879-3 0  9991","COUNTRY_CODE":"US","TLE_LINE2":"2 47813  53.0543 118.4330 0001866  52.9202 307.1957 15.06404622 63164","MEAN_ELEMENT_THEORY":"SGP4","APOAPSIS":"548.492","ARG_OF_PERICENTER":"52.9202","PERIAPSIS":"545.907","DECAY_DATE":null,"NORAD_CAT_ID":"47813","CLASSIFICATION_TYPE":"U","RCS_SIZE":"LARGE","EPOCH":"2022-04-21T10:20:04.887168","REV_AT_EPOCH":"6316","TIME_SYSTEM":"UTC","EPHEMERIS_TYPE":"0","RA_OF_ASC_NODE":"118.4330","MEAN_MOTION_DOT":"0.00001488","LAUNCH_DATE":"2021-03-11","OBJECT_ID":"2021-018AC","SEMIMAJOR_AXIS":"6925.334","MEAN_MOTION_DDOT":"0.0000000000000","CENTER_NAME":"EARTH","PERIOD":"95.592","SITE":"AFETR","ECCENTRICITY":"0.00018660","INCLINATION":"53.0543"},{"SITE":"AFETR","PERIOD":"95.592","INCLINATION":"53.0533","ECCENTRICITY":"0.00020540","CENTER_NAME":"EARTH","MEAN_MOTION_DDOT":"0.0000000000000","SEMIMAJOR_AXIS":"6925.319","OBJECT_ID":"2021-018AD","RA_OF_ASC_NODE":"137.7365","LAUNCH_DATE":"2021-03-11","MEAN_MOTION_DOT":"0.00006417","EPOCH":"2022-04-21T14:05:39.444576","RCS_SIZE":"MEDIUM","EPHEMERIS_TYPE":"0","TIME_SYSTEM":"UTC","REV_AT_EPOCH":"6291","PERIAPSIS":"545.762","ARG_OF_PERICENTER":"41.0649","APOAPSIS":"548.606","DECAY_DATE":null,"NORAD_CAT_ID":"47814","CLASSIFICATION_TYPE":"U","COUNTRY_CODE":"US","TLE_LINE2":"2 47814  53.0533 137.7365 0002054  41.0649 319.0495 15.06409654 62911","TLE_LINE1":"1 47814U 21018AD  22111.58726209  .00006417  00000-0  44917-3 0  9998","OBJECT_NAME":"STARLINK-2395","MEAN_ELEMENT_THEORY":"SGP4","GP_ID":"201775736","MEAN_ANOMALY":"319.0495","OBJECT_TYPE":"PAYLOAD","REF_FRAME":"TEME","BSTAR":"0.00044917000000","MEAN_MOTION":"15.06409654","FILE":"3410450","ELEMENT_SET_NO":"999"},{"RA_OF_ASC_NODE":"131.9889","LAUNCH_DATE":"2021-03-11","MEAN_MOTION_DOT":"0.00000788","EPOCH":"2022-04-21T18:02:30.055200","RCS_SIZE":"LARGE","EPHEMERIS_TYPE":"0","TIME_SYSTEM":"UTC","REV_AT_EPOCH":"6294","SITE":"AFETR","PERIOD":"95.592","INCLINATION":"53.0538","ECCENTRICITY":"0.00020410","CENTER_NAME":"EARTH","MEAN_MOTION_DDOT":"0.0000000000000","SEMIMAJOR_AXIS":"6925.338","OBJECT_ID":"2021-018AE","GP_ID":"201775481","OBJECT_TYPE":"PAYLOAD","MEAN_ANOMALY":"313.9910","REF_FRAME":"TEME","BSTAR":"0.00007177100000","MEAN_MOTION":"15.06403445","FILE":"3410450","ELEMENT_SET_NO":"999","PERIAPSIS":"545.790","ARG_OF_PERICENTER":"46.1248","APOAPSIS":"548.616","CLASSIFICATION_TYPE":"U","DECAY_DATE":null,"NORAD_CAT_ID":"47815","COUNTRY_CODE":"US","TLE_LINE2":"2 47815  53.0538 131.9889 0002041  46.1248 313.9910 15.06403445 62941","TLE_LINE1":"1 47815U 21018AE  22111.75173675  .00000788  00000-0  71771-4 0  9995","OBJECT_NAME":"STARLINK-2396","MEAN_ELEMENT_THEORY":"SGP4"}];
